NIMIQ 4                 
1 33373U 08044A   26168.25258681  .00000000  00000+0  00000+0 0  9993
2 33373   0.0341  46.5963 0002087  36.4698 191.4102  1.00267734 64980
GALAXY 19 (G-19)        
1 33376U 08045A   26168.37972437 -.00000143  00000+0  00000+0 0  9991
2 33376   0.0357 264.1139 0002462 185.9298 215.2964  1.00271204 64906
ASTRA 1M                
1 33436U 08057A   26167.68869601  .00000118  00000+0  00000+0 0  9993
2 33436   0.2958  82.4397 0004674  24.4495  65.3540  1.00271394 45736
EUTELSAT HOTBIRD 13C    
1 33459U 08065A   26167.74615031 -.00000287  00000+0  00000+0 0  9998
2 33459   2.9496  79.1965 0003284   5.7498  38.3846  1.00270965 47343
EXPRESS-AM44            
1 33595U 09007A   26167.82524409 -.00000094  00000+0  00000+0 0  9999
2 33595   3.4623  78.3927 0003824   0.3269 112.4475  1.00270965 52289
NSS-9                   
1 33749U 09008A   26167.72110353  .00000068  00000+0  00000+0 0  9999
2 33749   1.2611  82.6574 0001951 343.7219 281.2706  1.00269855 63513
TELSTAR 11N             
1 34111U 09009A   26167.74875034 -.00000253  00000+0  00000+0 0  9997
2 34111   0.0168  53.6932 0002145  33.4556  49.8529  1.00270469 46245
WGS F2 (USA 204)        
1 34713U 09017A   26167.95206564  .00000065  00000+0  00000+0 0  9993
2 34713   0.0170   1.4851 0000268 245.2317  58.7440  1.00270644 45615
SES-7 (PROTOSTAR 2)     
1 34941U 09027A   26167.99150286 -.00000348  00000+0  00000+0 0  9995
2 34941   0.0377  64.0237 0000675 142.7809 163.6641  1.00271016 62622
MEASAT-3A               
1 35362U 09032A   26167.71651019 -.00000113  00000+0  00000+0 0  9999
2 35362   0.0224 348.3662 0002845  89.8542 244.7127  1.00271659  8024
GOES 14                 
1 35491U 09033A   26167.85555133 -.00000294  00000+0  00000+0 0  9998
2 35491   1.6897  83.0444 0001742  11.3150 260.7785  1.00110888  6584
FM-5                    
1 35493U 09034A   26168.34557808 -.00000204  00000+0  00000+0 0  9998
2 35493   0.0195 295.3044 0000869   7.9581   0.5852  1.00269074 46640
TERRESTAR-1             
1 35496U 09035A   26168.22369615 -.00000063  00000+0  00000+0 0  9999
2 35496   5.1812  48.7996 0002560  29.6869 156.5028  1.00270147 62133
ASIASAT 5               
1 35696U 09042A   26167.84731797  .00000000  00000+0  00000+0 0  9990
2 35696   0.0255  37.3123 0001586  50.6702 222.7177  1.00267309 61702
JCSAT-12 (JCSAT-RA)     
1 35755U 09044A   26167.78229464 -.00000330  00000+0  00000+0 0  9991
2 35755   0.0115 346.9047 0000436 330.2546   1.5569  1.00271328 61606
OPTUS D3                
1 35756U 09044B   26167.92963139 -.00000149  00000+0  00000+0 0  9990
2 35756   0.8740 268.9828 0002795 179.8033 307.2103  1.00269616 61569
NIMIQ 5                 
1 35873U 09050A   26168.28525616 -.00000261  00000+0  00000+0 0  9996
2 35873   0.0180 328.9324 0002648 112.9044 213.6990  1.00270064 61343
AMAZONAS 2              
1 35942U 09054A   26168.13946242 -.00000263  00000+0  00000+0 0  9995
2 35942   1.8161  83.0501 0003185 358.9667 161.5682  1.00268628 61188
COMSATBW-1              
1 35943U 09054B   26167.94004712  .00000020  00000+0  00000+0 0  9991
2 35943   0.0581 163.0198 0002686 292.5275 211.1099  1.00277400 61306
NSS-12                  
1 36032U 09058A   26167.98132006  .00000069  00000+0  00000+0 0  9990
2 36032   0.0450  52.2869 0004768   3.8644 259.3699  1.00268138 60915
THOR 6                  
1 36033U 09058B   26167.68470933 -.00000012  00000+0  00000+0 0  9991
2 36033   0.0149  82.6195 0001537 357.3564  70.6273  1.00270891 61001
INTELSAT 14 (IS-14)     
1 36097U 09064A   26168.31432249 -.00000278  00000+0  00000+0 0  9991
2 36097   0.0161 302.6192 0002205 137.6371 253.4721  1.00270025 60608
EUTELSAT 36B            
1 36101U 09065A   26167.93009735  .00000109  00000+0  00000+0 0  9997
2 36101   0.4914  81.1057 0005798   2.8196 206.6092  1.00273752 60703
INTELSAT 15 (IS-15)     
1 36106U 09067A   26167.95442034 -.00000188  00000+0  00000+0 0  9997
2 36106   0.0121 311.4719 0002047 137.7052 244.7718  1.00270326 41229
WGS F3 (USA 211)        
1 36108U 09068A   26168.46742262  .00000060  00000+0  00000+0 0  9991
2 36108   0.3260  85.8006 0000259 155.2184  62.9741  1.00268321 46596
DIRECTV 12              
1 36131U 09075A   26168.32850905 -.00000108  00000+0  00000+0 0  9998
2 36131   0.0140 115.9690 0000445 281.2842 243.8769  1.00271807 46557
BEIDOU-2 G1             
1 36287U 10001A   26167.64125492 -.00000285  00000+0  00000+0 0  9997
2 36287   4.2916  60.4059 0002267 296.2187 279.6071  1.00270453 60163
SDO                     
1 36395U 10005A   26167.50926725 -.00000097  00000+0  00000+0 0  9995
2 36395  34.6508  86.3517 0001708  44.3809 215.2958  1.00269934 60055
INTELSAT 16 (IS-16)     
1 36397U 10006A   26168.19674508 -.00000249  00000+0  00000+0 0  9992
2 36397   0.0156 309.8703 0001909 146.3071 163.8927  1.00275633 59651
EWS-G2 (GOES 15)        
1 36411U 10008A   26167.94125012  .00000014  00000+0  00000+0 0  9993
2 36411   1.2775  82.8648 0005411  42.2478 182.6632  1.00275936 59637
ECHOSTAR 14             
1 36499U 10010A   26168.12200880 -.00000004  00000+0  00000+0 0  9990
2 36499   0.0457  84.1921 0002361  20.0757  86.1619  1.00272734 46554
SES-1                   
1 36516U 10016A   26167.66486257 -.00000116  00000+0  00000+0 0  9992
2 36516   0.0124 336.5149 0002495 107.8858 318.8809  1.00271087 59027
